CCSDS_OMM_VERS = 2.0
CREATION_DATE  = 
ORIGINATOR     = 

OBJECT_NAME    = 2026-023D
OBJECT_ID      = 2026-023D
CENTER_NAME    = EARTH
REF_FRAME      = TEME
TIME_SYSTEM    = UTC
MEAN_ELEMENT_THEORY = SGP/SGP4

EPOCH          = 2026-02-17T06:48:00.395424
MEAN_MOTION    = 15.22409466
ECCENTRICITY   = .00191617
INCLINATION    = 96.6468
RA_OF_ASC_NODE = 123.5953
ARG_OF_PERICENTER = 198.1092
MEAN_ANOMALY   = 161.9467

EPHEMERIS_TYPE = 0
CLASSIFICATION_TYPE = U
NORAD_CAT_ID   = 67677
ELEMENT_SET_NO = 999
REV_AT_EPOCH   = 174
BSTAR          = .5907472E-3
MEAN_MOTION_DOT = .13673E-3
MEAN_MOTION_DDOT = 0

CCSDS_OMM_VERS = 2.0
CREATION_DATE  = 
ORIGINATOR     = 

OBJECT_NAME    = 2026-023E
OBJECT_ID      = 2026-023E
CENTER_NAME    = EARTH
REF_FRAME      = TEME
TIME_SYSTEM    = UTC
MEAN_ELEMENT_THEORY = SGP/SGP4

EPOCH          = 2026-02-17T06:47:03.502752
MEAN_MOTION    = 15.22520310
ECCENTRICITY   = .00190132
INCLINATION    = 96.6361
RA_OF_ASC_NODE = 123.5960
ARG_OF_PERICENTER = 197.4366
MEAN_ANOMALY   = 162.6222

EPHEMERIS_TYPE = 0
CLASSIFICATION_TYPE = U
NORAD_CAT_ID   = 67678
ELEMENT_SET_NO = 999
REV_AT_EPOCH   = 174
BSTAR          = .68825048E-3
MEAN_MOTION_DOT = .15995E-3
MEAN_MOTION_DDOT = 0

CCSDS_OMM_VERS = 2.0
CREATION_DATE  = 
ORIGINATOR     = 

OBJECT_NAME    = 2026-023F
OBJECT_ID      = 2026-023F
CENTER_NAME    = EARTH
REF_FRAME      = TEME
TIME_SYSTEM    = UTC
MEAN_ELEMENT_THEORY = SGP/SGP4

EPOCH          = 2026-02-17T06:45:32.748192
MEAN_MOTION    = 15.22653073
ECCENTRICITY   = .00209778
INCLINATION    = 96.6368
RA_OF_ASC_NODE = 126.0929
ARG_OF_PERICENTER = 192.0285
MEAN_ANOMALY   = 168.0455

EPHEMERIS_TYPE = 0
CLASSIFICATION_TYPE = U
NORAD_CAT_ID   = 67679
ELEMENT_SET_NO = 999
REV_AT_EPOCH   = 173
BSTAR          = .74031393E-3
MEAN_MOTION_DOT = .17299E-3
MEAN_MOTION_DDOT = 0

CCSDS_OMM_VERS = 2.0
CREATION_DATE  = 
ORIGINATOR     = 

OBJECT_NAME    = 2026-023G
OBJECT_ID      = 2026-023G
CENTER_NAME    = EARTH
REF_FRAME      = TEME
TIME_SYSTEM    = UTC
MEAN_ELEMENT_THEORY = SGP/SGP4

EPOCH          = 2026-02-17T06:45:56.278368
MEAN_MOTION    = 15.22620151
ECCENTRICITY   = .00225518
INCLINATION    = 96.6297
RA_OF_ASC_NODE = 126.0903
ARG_OF_PERICENTER = 188.6090
MEAN_ANOMALY   = 171.4765

EPHEMERIS_TYPE = 0
CLASSIFICATION_TYPE = U
NORAD_CAT_ID   = 67680
ELEMENT_SET_NO = 999
REV_AT_EPOCH   = 173
BSTAR          = .6861936E-3
MEAN_MOTION_DOT = .16027E-3
MEAN_MOTION_DDOT = 0

CCSDS_OMM_VERS = 2.0
CREATION_DATE  = 
ORIGINATOR     = 

OBJECT_NAME    = 2026-023H
OBJECT_ID      = 2026-023H
CENTER_NAME    = EARTH
REF_FRAME      = TEME
TIME_SYSTEM    = UTC
MEAN_ELEMENT_THEORY = SGP/SGP4

EPOCH          = 2026-02-16T16:33:55.878912
MEAN_MOTION    = 15.22597278
ECCENTRICITY   = .00224596
INCLINATION    = 96.6443
RA_OF_ASC_NODE = 125.5685
ARG_OF_PERICENTER = 190.0290
MEAN_ANOMALY   = 170.0504

EPHEMERIS_TYPE = 0
CLASSIFICATION_TYPE = U
NORAD_CAT_ID   = 67681
ELEMENT_SET_NO = 999
REV_AT_EPOCH   = 164
BSTAR          = .4403015E-4
MEAN_MOTION_DOT = .971E-5
MEAN_MOTION_DDOT = 0

CCSDS_OMM_VERS = 2.0
CREATION_DATE  = 
ORIGINATOR     = 

OBJECT_NAME    = 2026-023J
OBJECT_ID      = 2026-023J
CENTER_NAME    = EARTH
REF_FRAME      = TEME
TIME_SYSTEM    = UTC
MEAN_ELEMENT_THEORY = SGP/SGP4

EPOCH          = 2026-02-17T06:45:14.377824
MEAN_MOTION    = 15.22682578
ECCENTRICITY   = .00227691
INCLINATION    = 96.6397
RA_OF_ASC_NODE = 126.1047
ARG_OF_PERICENTER = 184.7866
MEAN_ANOMALY   = 175.3158

EPHEMERIS_TYPE = 0
CLASSIFICATION_TYPE = U
NORAD_CAT_ID   = 67682
ELEMENT_SET_NO = 999
REV_AT_EPOCH   = 173
BSTAR          = .60607434E-3
MEAN_MOTION_DOT = .14173E-3
MEAN_MOTION_DDOT = 0

CCSDS_OMM_VERS = 2.0
CREATION_DATE  = 
ORIGINATOR     = 

OBJECT_NAME    = ISS OBJECT XZ
OBJECT_ID      = 1998-067XZ
CENTER_NAME    = EARTH
REF_FRAME      = TEME
TIME_SYSTEM    = UTC
MEAN_ELEMENT_THEORY = SGP/SGP4

EPOCH          = 2026-02-16T15:46:41.061216
MEAN_MOTION    = 15.50110674
ECCENTRICITY   = .00104539
INCLINATION    = 51.6311
RA_OF_ASC_NODE = 176.2115
ARG_OF_PERICENTER = 117.3582
MEAN_ANOMALY   = 242.8472

EPHEMERIS_TYPE = 0
CLASSIFICATION_TYPE = U
NORAD_CAT_ID   = 67683
ELEMENT_SET_NO = 999
REV_AT_EPOCH   = 152
BSTAR          = .68493875E-3
MEAN_MOTION_DOT = .39055E-3
MEAN_MOTION_DDOT = 0

CCSDS_OMM_VERS = 2.0
CREATION_DATE  = 
ORIGINATOR     = 

OBJECT_NAME    = GXIBA-1
OBJECT_ID      = 1998-067YA
CENTER_NAME    = EARTH
REF_FRAME      = TEME
TIME_SYSTEM    = UTC
MEAN_ELEMENT_THEORY = SGP/SGP4

EPOCH          = 2026-02-16T15:40:00.848640
MEAN_MOTION    = 15.51081436
ECCENTRICITY   = .00121024
INCLINATION    = 51.6308
RA_OF_ASC_NODE = 176.1816
ARG_OF_PERICENTER = 110.9325
MEAN_ANOMALY   = 249.2961

EPHEMERIS_TYPE = 0
CLASSIFICATION_TYPE = U
NORAD_CAT_ID   = 67684
ELEMENT_SET_NO = 999
REV_AT_EPOCH   = 152
BSTAR          = .12496488E-2
MEAN_MOTION_DOT = .74552E-3
MEAN_MOTION_DDOT = 0

CCSDS_OMM_VERS = 2.0
CREATION_DATE  = 
ORIGINATOR     = 

OBJECT_NAME    = CORAL
OBJECT_ID      = 1998-067YB
CENTER_NAME    = EARTH
REF_FRAME      = TEME
TIME_SYSTEM    = UTC
MEAN_ELEMENT_THEORY = SGP/SGP4

EPOCH          = 2026-02-16T15:45:23.142240
MEAN_MOTION    = 15.50278727
ECCENTRICITY   = .00123961
INCLINATION    = 51.6312
RA_OF_ASC_NODE = 176.2061
ARG_OF_PERICENTER = 113.0551
MEAN_ANOMALY   = 247.1746

EPHEMERIS_TYPE = 0
CLASSIFICATION_TYPE = U
NORAD_CAT_ID   = 67685
ELEMENT_SET_NO = 999
REV_AT_EPOCH   = 152
BSTAR          = .77476978E-3
MEAN_MOTION_DOT = .44575E-3
MEAN_MOTION_DDOT = 0

CCSDS_OMM_VERS = 2.0
CREATION_DATE  = 
ORIGINATOR     = 

OBJECT_NAME    = ISS OBJECT YC
OBJECT_ID      = 1998-067YC
CENTER_NAME    = EARTH
REF_FRAME      = TEME
TIME_SYSTEM    = UTC
MEAN_ELEMENT_THEORY = SGP/SGP4

EPOCH          = 2026-02-16T14:11:22.659936
MEAN_MOTION    = 15.50464751
ECCENTRICITY   = .0007796
INCLINATION    = 51.6314
RA_OF_ASC_NODE = 176.5206
ARG_OF_PERICENTER = 86.2899
MEAN_ANOMALY   = 273.8981

EPHEMERIS_TYPE = 0
CLASSIFICATION_TYPE = U
NORAD_CAT_ID   = 67686
ELEMENT_SET_NO = 999
REV_AT_EPOCH   = 151
BSTAR          = .9042E-3
MEAN_MOTION_DOT = .52403E-3
MEAN_MOTION_DDOT = 0

CCSDS_OMM_VERS = 2.0
CREATION_DATE  = 
ORIGINATOR     = 

OBJECT_NAME    = LEOPARD
OBJECT_ID      = 1998-067YD
CENTER_NAME    = EARTH
REF_FRAME      = TEME
TIME_SYSTEM    = UTC
MEAN_ELEMENT_THEORY = SGP/SGP4

EPOCH          = 2026-02-16T15:45:55.393632
MEAN_MOTION    = 15.50209521
ECCENTRICITY   = .00078397
INCLINATION    = 51.6316
RA_OF_ASC_NODE = 176.2085
ARG_OF_PERICENTER = 89.2385
MEAN_ANOMALY   = 270.9502

EPHEMERIS_TYPE = 0
CLASSIFICATION_TYPE = U
NORAD_CAT_ID   = 67687
ELEMENT_SET_NO = 999
REV_AT_EPOCH   = 144
BSTAR          = .76465348E-3
MEAN_MOTION_DOT = .43795E-3
MEAN_MOTION_DDOT = 0

CCSDS_OMM_VERS = 2.0
CREATION_DATE  = 
ORIGINATOR     = 

OBJECT_NAME    = ISS OBJECT YE
OBJECT_ID      = 1998-067YE
CENTER_NAME    = EARTH
REF_FRAME      = TEME
TIME_SYSTEM    = UTC
MEAN_ELEMENT_THEORY = SGP/SGP4

EPOCH          = 2026-02-16T15:44:38.329152
MEAN_MOTION    = 15.50385572
ECCENTRICITY   = .0007765
INCLINATION    = 51.6315
RA_OF_ASC_NODE = 176.2033
ARG_OF_PERICENTER = 86.9328
MEAN_ANOMALY   = 273.2550

EPHEMERIS_TYPE = 0
CLASSIFICATION_TYPE = U
NORAD_CAT_ID   = 67688
ELEMENT_SET_NO = 999
REV_AT_EPOCH   = 144
BSTAR          = .8359149E-3
MEAN_MOTION_DOT = .48248E-3
MEAN_MOTION_DDOT = 0

